YAM-7                   
1 60504U 24149AN  26068.71799904  .00009009  00000+0  30984-3 0  9997
2 60504  97.3828 149.4631 0001973 296.5121  63.5918 15.30304554 86835
STARLINK-33819          
1 63494U 25071B   26068.52341709  .00014711  00000+0  50798-3 0  9999
2 63494  53.1601 142.8886 0001108  97.8644 262.2482 15.30189397 52693
